OBJECT_NAME,OBJECT_ID,EPOCH,MEAN_MOTION,ECCENTRICITY,INCLINATION,RA_OF_ASC_NODE,ARG_OF_PERICENTER,MEAN_ANOMALY,EPHEMERIS_TYPE,CLASSIFICATION_TYPE,NORAD_CAT_ID,ELEMENT_SET_NO,REV_AT_EPOCH,BSTAR,MEAN_MOTION_DOT,MEAN_MOTION_DDOT
STARLINK-11448 [DTC],2025-032A,2025-05-19T14:00:01.000224,15.70817861,.0001657,43.0001,167.7688,272.9569,44.6833,0,U,63005,999,586,.23275E-3,.29495E-3,0
STARLINK-11553 [DTC],2025-032B,2025-05-19T12:24:08.322336,15.70831096,.0001857,43.0025,168.9151,264.4712,95.5944,0,U,63006,999,1594,.63488E-5,.366E-5,0
STARLINK-11526 [DTC],2025-032C,2025-05-19T18:37:48.107136,15.70870212,.0001761,43.0026,166.5279,268.1676,91.8990,0,U,63007,999,1598,.33459E-4,.3852E-4,0
STARLINK-11405 [DTC],2025-032D,2025-05-19T12:10:09.444000,15.70837654,.00022,43.0043,168.8351,275.1992,84.8625,0,U,63008,999,1579,-.26331E-5,-.787E-5,0
STARLINK-11586 [DTC],2025-032E,2025-05-19T10:14:21.609600,15.70828317,.0001576,43.0022,169.0833,270.3792,89.6895,0,U,63009,999,1593,-.19161E-5,-.694E-5,0
STARLINK-11574 [DTC],2025-032F,2025-05-19T10:29:39.222528,15.70826966,.0001289,43.0000,169.1672,294.8314,65.2419,0,U,63010,999,1592,-.29159E-5,-.822E-5,0
STARLINK-11580 [DTC],2025-032G,2025-05-19T09:51:25.502976,15.70830479,.0000869,43.0006,168.9573,24.1630,335.9279,0,U,63011,999,1578,.11117E-4,.978E-5,0
STARLINK-11449 [DTC],2025-032H,2025-05-19T10:06:42.154272,15.70837979,.0001896,43.0026,169.0381,270.3736,89.6915,0,U,63012,999,1593,.52255E-5,.222E-5,0
STARLINK-11577 [DTC],2025-032J,2025-05-19T10:21:59.784480,15.70834574,.000177,43.0019,169.1219,257.1246,102.9424,0,U,63013,999,1593,.79973E-6,-.346E-5,0
STARLINK-11578 [DTC],2025-032K,2025-05-19T18:22:44.202432,15.70917506,.0002519,42.9984,167.3358,298.0979,61.9634,0,U,63014,999,1595,.17129E-2,.226169E-2,0
STARLINK-11541 [DTC],2025-032L,2025-05-19T18:53:07.613088,15.70825274,.0002866,43.0061,166.6099,264.3707,95.6834,0,U,63015,999,1598,.85303E-5,.644E-5,0
STARLINK-11545 [DTC],2025-032M,2025-05-19T08:27:30.126528,15.70835601,.000164,43.0041,169.3803,274.3796,85.6884,0,U,63016,999,1593,-.3331E-5,-.876E-5,0
STARLINK-11400 [DTC],2025-032N,2025-05-19T10:37:18.169824,15.70822585,.0001337,43.0005,169.2104,296.2045,63.8685,0,U,63017,999,1593,-.99132E-5,-.1719E-4,0
STARLINK-32870,2025-032P,2025-05-19T05:14:32.931744,15.27573434,.0001047,43.0001,199.1307,255.3027,104.7709,0,U,63018,999,1558,-.21552E-5,-.321E-5,0
STARLINK-32872,2025-032Q,2025-05-19T15:10:58.118304,15.27564358,.0001507,42.9971,197.0859,250.9146,109.1542,0,U,63019,999,1564,-.73235E-4,-.2276E-4,0
STARLINK-32677,2025-032R,2025-05-19T03:45:56.677536,15.27578782,.0001042,43.0001,199.5364,248.0954,111.9787,0,U,63020,999,1556,-.14903E-4,-.672E-5,0
STARLINK-32929,2025-032S,2025-05-19T03:51:29.959488,15.27570723,.000123,43.0011,199.5652,262.4757,97.5955,0,U,63021,999,1557,-.191E-4,-.787E-5,0
STARLINK-32944,2025-032T,2025-05-19T10:34:01.890624,15.27574471,.0001658,42.9980,198.2251,278.8598,81.2066,0,U,63022,999,1561,-.24051E-4,-.924E-5,0
STARLINK-32943,2025-032U,2025-05-19T20:30:11.446560,15.27641774,.0001802,42.9983,195.3111,272.5702,87.4943,0,U,63023,999,1568,-.50858E-3,-.14257E-3,0
STARLINK-32803,2025-032V,2025-05-19T10:59:43.269216,15.27575005,.0001611,42.9989,197.4907,281.4437,78.6234,0,U,63024,999,1546,-.68894E-4,-.2157E-4,0
STARLINK-32926,2025-032W,2025-05-19T20:15:25.418880,15.27562164,.000081,42.9998,195.2273,265.5774,94.4985,0,U,63025,999,1568,-.60711E-4,-.1931E-4,0
GLOBAL-31,2025-033B,2025-05-19T08:03:41.077440,15.36536923,.0019425,59.0013,108.3024,53.5403,306.7459,0,U,63027,999,1370,.19958E-3,.6891E-4,0
STARLINK-32798,2025-034A,2025-05-19T11:26:25.542528,15.30207199,.0001217,53.1597,197.3549,70.5706,289.5426,0,U,63029,999,1386,-.88727E-4,-.2987E-4,0
STARLINK-32779,2025-034B,2025-05-19T11:14:25.857312,15.30195229,.0000989,53.1593,198.0055,107.3196,252.7913,0,U,63030,999,1385,.69935E-5,-.152E-5,0
STARLINK-32716,2025-034C,2025-05-19T10:29:02.175936,15.39618623,.0001011,53.1596,194.9705,80.5763,279.5357,0,U,63031,999,1389,-.42572E-4,-.2101E-4,0
STARLINK-32776,2025-034D,2025-05-19T10:15:39.233952,15.39621413,.0001131,53.1597,194.9134,76.3208,283.7922,0,U,63032,999,1389,.10505E-4,.21E-6,0
STARLINK-32772,2025-034E,2025-05-19T11:22:31.332864,15.39620341,.0001415,53.1607,195.2051,81.7698,278.3468,0,U,63033,999,1389,.18947E-4,.358E-5,0
STARLINK-32830,2025-034F,2025-05-19T10:55:46.380288,15.39618561,.0001055,53.1581,195.0879,94.0662,266.0464,0,U,63034,999,1389,.3971E-4,.1189E-4,0
STARLINK-32801,2025-034G,2025-05-19T12:42:55.272096,15.39567580,.0001196,53.1594,194.8395,97.6646,262.4495,0,U,63035,999,1390,.66209E-4,.2245E-4,0
STARLINK-32818,2025-034H,2025-05-19T20:57:42.767424,15.39624806,.0001262,53.1580,193.4341,75.1522,284.9622,0,U,63036,999,1517,.53018E-4,.1722E-4,0
