STARLINK-11448 [DTC]    
1 63005U 25032A   25139.58334491  .00029495  00000+0  23275-3 0  9993
2 63005  43.0001 167.7688 0001657 272.9569  44.6833 15.70817861  5867
STARLINK-11553 [DTC]    
1 63006U 25032B   25139.51676299  .00000366  00000+0  63488-5 0  9990
2 63006  43.0025 168.9151 0001857 264.4712  95.5944 15.70831096 15944
STARLINK-11526 [DTC]    
1 63007U 25032C   25139.77625124  .00003852  00000+0  33459-4 0  9997
2 63007  43.0026 166.5279 0001761 268.1676  91.8990 15.70870212 15982
STARLINK-11405 [DTC]    
1 63008U 25032D   25139.50705375 -.00000787  00000+0 -26331-5 0  9994
2 63008  43.0043 168.8351 0002200 275.1992  84.8625 15.70837654 15795
STARLINK-11586 [DTC]    
1 63009U 25032E   25139.42663900 -.00000694  00000+0 -19161-5 0  9993
2 63009  43.0022 169.0833 0001576 270.3792  89.6895 15.70828317 15935
STARLINK-11574 [DTC]    
1 63010U 25032F   25139.43725952 -.00000822  00000+0 -29159-5 0  9993
2 63010  43.0000 169.1672 0001289 294.8314  65.2419 15.70826966 15926
STARLINK-11580 [DTC]    
1 63011U 25032G   25139.41071184  .00000978  00000+0  11117-4 0  9997
2 63011  43.0006 168.9573 0000869  24.1630 335.9279 15.70830479 15787
STARLINK-11449 [DTC]    
1 63012U 25032H   25139.42132123  .00000222  00000+0  52255-5 0  9991
2 63012  43.0026 169.0381 0001896 270.3736  89.6915 15.70837979 15931
STARLINK-11577 [DTC]    
1 63013U 25032J   25139.43194195 -.00000346  00000+0  79973-6 0  9995
2 63013  43.0019 169.1219 0001770 257.1246 102.9424 15.70834574 15937
STARLINK-11578 [DTC]    
1 63014U 25032K   25139.76578938  .00226169  00000+0  17129-2 0  9996
2 63014  42.9984 167.3358 0002519 298.0979  61.9634 15.70917506 15956
STARLINK-11541 [DTC]    
1 63015U 25032L   25139.78689367  .00000644  00000+0  85303-5 0  9998
2 63015  43.0061 166.6099 0002866 264.3707  95.6834 15.70825274 15988
STARLINK-11545 [DTC]    
1 63016U 25032M   25139.35243202 -.00000876  00000+0 -33310-5 0  9996
2 63016  43.0041 169.3803 0001640 274.3796  85.6884 15.70835601 15932
STARLINK-11400 [DTC]    
1 63017U 25032N   25139.44257141 -.00001719  00000+0 -99132-5 0  9995
2 63017  43.0005 169.2104 0001337 296.2045  63.8685 15.70822585 15933
STARLINK-32870          
1 63018U 25032P   25139.21843671 -.00000321  00000+0 -21552-5 0  9999
2 63018  43.0001 199.1307 0001047 255.3027 104.7709 15.27573434 15582
STARLINK-32872          
1 63019U 25032Q   25139.63261711 -.00002276  00000+0 -73235-4 0  9990
2 63019  42.9971 197.0859 0001507 250.9146 109.1542 15.27564358 15646
STARLINK-32677          
1 63020U 25032R   25139.15690599 -.00000672  00000+0 -14903-4 0  9994
2 63020  43.0001 199.5364 0001042 248.0954 111.9787 15.27578782 15560
STARLINK-32929          
1 63021U 25032S   25139.16076342 -.00000787  00000+0 -19100-4 0  9991
2 63021  43.0011 199.5652 0001230 262.4757  97.5955 15.27570723 15576
STARLINK-32944          
1 63022U 25032T   25139.44029966 -.00000924  00000+0 -24051-4 0  9997
2 63022  42.9980 198.2251 0001658 278.8598  81.2066 15.27574471 15611
STARLINK-32943          
1 63023U 25032U   25139.85429915 -.00014257  00000+0 -50858-3 0  9998
2 63023  42.9983 195.3111 0001802 272.5702  87.4943 15.27641774 15687
STARLINK-32803          
1 63024U 25032V   25139.45813969 -.00002157  00000+0 -68894-4 0  9997
2 63024  42.9989 197.4907 0001611 281.4437  78.6234 15.27575005 15466
STARLINK-32926          
1 63025U 25032W   25139.84404420 -.00001931  00000+0 -60711-4 0  9998
2 63025  42.9998 195.2273 0000810 265.5774  94.4985 15.27562164 15681
GLOBAL-31               
1 63027U 25033B   25139.33589210  .00006891  00000+0  19958-3 0  9990
2 63027  59.0013 108.3024 0019425  53.5403 306.7459 15.36536923 13705
STARLINK-32798          
1 63029U 25034A   25139.47668452 -.00002987  00000+0 -88727-4 0  9999
2 63029  53.1597 197.3549 0001217  70.5706 289.5426 15.30207199 13867
STARLINK-32779          
1 63030U 25034B   25139.46835483 -.00000152  00000+0  69935-5 0  9992
2 63030  53.1593 198.0055 0000989 107.3196 252.7913 15.30195229 13854
STARLINK-32716          
1 63031U 25034C   25139.43683074 -.00002101  00000+0 -42572-4 0  9991
2 63031  53.1596 194.9705 0001011  80.5763 279.5357 15.39618623 13894
STARLINK-32776          
1 63032U 25034D   25139.42753743  .00000021  00000+0  10505-4 0  9990
2 63032  53.1597 194.9134 0001131  76.3208 283.7922 15.39621413 13898
STARLINK-32772          
1 63033U 25034E   25139.47397376  .00000358  00000+0  18947-4 0  9993
2 63033  53.1607 195.2051 0001415  81.7698 278.3468 15.39620341 13895
STARLINK-32830          
1 63034U 25034F   25139.45539792  .00001189  00000+0  39710-4 0  9996
2 63034  53.1581 195.0879 0001055  94.0662 266.0464 15.39618561 13892
STARLINK-32801          
1 63035U 25034G   25139.52980639  .00002245  00000+0  66209-4 0  9992
2 63035  53.1594 194.8395 0001196  97.6646 262.4495 15.39567580 13904
STARLINK-32818          
1 63036U 25034H   25139.87341166  .00001722  00000+0  53018-4 0  9990
2 63036  53.1580 193.4341 0001262  75.1522 284.9622 15.39624806 15171
